[
    {
        "Altitude(m)": 622200.074925779,
        "Argument of Periapsis(deg)": 0.0,
        "Eccentricity": 0.0,
        "Inclination(deg)": 60.0,
        "Latitude(deg)": -52.16244914831087,
        "Longitude(deg)": 97.3607568652037,
        "Mean Anomaly(deg)": -65.45450000000002,
        "RAAN(deg)": 245.0,
        "Satellite Name": "Test1 1096",
        "Satellite Number": 1096,
        "Semi-Major Axis(m)": 6980739.136638005,
        "Time(s)": 0
    },
    {
        "Altitude(m)": 622058.2425605477,
        "Argument of Periapsis(deg)": 0.00010418945913296404,
        "Eccentricity": 0.0,
        "Inclination(deg)": 60.0,
        "Latitude(deg)": -51.7991987574877,
        "Longitude(deg)": 98.12881318187323,
        "Mean Anomaly(deg)": -64.83439385453818,
        "RAAN(deg)": 244.99957995086027,
        "Satellite Name": "Test1 1096",
        "Satellite Number": 1096,
        "Semi-Major Axis(m)": 6980739.136638005,
        "Time(s)": 10
    }
]